ONEWEB-0512             
1 54130U 22138T   25132.76820469  .00000031  00000+0  44381-4 0  9991
2 54130  87.9257  24.5881 0001500  70.3221 289.8073 13.19727109123993
ONEWEB-0514             
1 54132U 22138V   25132.93562916  .00000053  00000+0  99935-4 0  9991
2 54132  87.9250  24.5243 0001881  79.1952 280.9393 13.19728048124036
ONEWEB-0515             
1 54133U 22138W   25133.12300318  .00000048  00000+0  86670-4 0  9996
2 54133  87.9283 354.0789 0002431 104.8114 255.3289 13.20769903127363
ONEWEB-0516             
1 54134U 22138X   25132.75872394  .00000020  00000+0  18492-4 0  9990
2 54134  87.9256  24.5929 0001702  81.9609 278.1717 13.19727653124015
ONEWEB-0517             
1 54135U 22138Y   25132.96563877  .00000124  00000+0  27666-3 0  9994
2 54135  87.9249  24.5137 0002027  71.7726 288.3627 13.19728752124044
ONEWEB-0518             
1 54136U 22138Z   25133.21205363  .00000078  00000+0  16289-3 0  9994
2 54136  87.9255  24.4985 0001666  78.7179 281.4141 13.19726257124941
ONEWEB-0519             
1 54137U 22138AA  25132.93405395  .00000085  00000+0  18045-3 0  9990
2 54137  87.9249  24.5130 0001914  73.0612 287.0730 13.19727668124048
